CCSDS_OMM_VERS = 2.0
CREATION_DATE  = 
ORIGINATOR     = 

OBJECT_NAME    = SL-4 R/B
OBJECT_ID      = 2014-021B
CENTER_NAME    = EARTH
REF_FRAME      = TEME
TIME_SYSTEM    = UTC
MEAN_ELEMENT_THEORY = SGP/SGP4

EPOCH          = 2026-02-04T07:24:31.806144
MEAN_MOTION    = 15.38118544
ECCENTRICITY   = .00989911
INCLINATION    = 51.6067
RA_OF_ASC_NODE = 139.9870
ARG_OF_PERICENTER = 341.3213
MEAN_ANOMALY   = 18.4147

EPHEMERIS_TYPE = 0
CLASSIFICATION_TYPE = U
NORAD_CAT_ID   = 39679
ELEMENT_SET_NO = 999
REV_AT_EPOCH   = 65113
BSTAR          = .29800443E-3
MEAN_MOTION_DOT = .13015E-3
MEAN_MOTION_DDOT = 0

CCSDS_OMM_VERS = 2.0
CREATION_DATE  = 
ORIGINATOR     = 

OBJECT_NAME    = ALOS-2
OBJECT_ID      = 2014-029A
CENTER_NAME    = EARTH
REF_FRAME      = TEME
TIME_SYSTEM    = UTC
MEAN_ELEMENT_THEORY = SGP/SGP4

EPOCH          = 2026-02-04T07:23:53.993184
MEAN_MOTION    = 14.79478399
ECCENTRICITY   = .0001438
INCLINATION    = 97.9221
RA_OF_ASC_NODE = 134.3859
ARG_OF_PERICENTER = 102.5712
MEAN_ANOMALY   = 257.5660

EPHEMERIS_TYPE = 0
CLASSIFICATION_TYPE = U
NORAD_CAT_ID   = 39766
ELEMENT_SET_NO = 999
REV_AT_EPOCH   = 63193
BSTAR          = .88194E-4
MEAN_MOTION_DOT = .607E-5
MEAN_MOTION_DDOT = 0

CCSDS_OMM_VERS = 2.0
CREATION_DATE  = 
ORIGINATOR     = 

OBJECT_NAME    = YAOGAN-29
OBJECT_ID      = 2015-069A
CENTER_NAME    = EARTH
REF_FRAME      = TEME
TIME_SYSTEM    = UTC
MEAN_ELEMENT_THEORY = SGP/SGP4

EPOCH          = 2026-02-04T07:52:06.043872
MEAN_MOTION    = 14.82956418
ECCENTRICITY   = .0002897
INCLINATION    = 98.0174
RA_OF_ASC_NODE = 63.6629
ARG_OF_PERICENTER = 91.7205
MEAN_ANOMALY   = 268.4340

EPHEMERIS_TYPE = 0
CLASSIFICATION_TYPE = U
NORAD_CAT_ID   = 41038
ELEMENT_SET_NO = 999
REV_AT_EPOCH   = 55093
BSTAR          = .65226721E-4
MEAN_MOTION_DOT = .475E-5
MEAN_MOTION_DDOT = 0

CCSDS_OMM_VERS = 2.0
CREATION_DATE  = 
ORIGINATOR     = 

OBJECT_NAME    = ASTRO-H (HITOMI)
OBJECT_ID      = 2016-012A
CENTER_NAME    = EARTH
REF_FRAME      = TEME
TIME_SYSTEM    = UTC
MEAN_ELEMENT_THEORY = SGP/SGP4

EPOCH          = 2026-02-04T04:24:01.574784
MEAN_MOTION    = 15.09754374
ECCENTRICITY   = .00098935
INCLINATION    = 30.9979
RA_OF_ASC_NODE = 212.7308
ARG_OF_PERICENTER = 355.6049
MEAN_ANOMALY   = 4.4502

EPHEMERIS_TYPE = 0
CLASSIFICATION_TYPE = U
NORAD_CAT_ID   = 41337
ELEMENT_SET_NO = 999
REV_AT_EPOCH   = 54716
BSTAR          = .22555313E-3
MEAN_MOTION_DOT = .3828E-4
MEAN_MOTION_DDOT = 0

CCSDS_OMM_VERS = 2.0
CREATION_DATE  = 
ORIGINATOR     = 

OBJECT_NAME    = HXMT (HUIYAN)
OBJECT_ID      = 2017-034A
CENTER_NAME    = EARTH
REF_FRAME      = TEME
TIME_SYSTEM    = UTC
MEAN_ELEMENT_THEORY = SGP/SGP4

EPOCH          = 2026-02-03T22:33:05.090400
MEAN_MOTION    = 15.17007385
ECCENTRICITY   = .00314173
INCLINATION    = 43.0128
RA_OF_ASC_NODE = 204.2439
ARG_OF_PERICENTER = 18.9038
MEAN_ANOMALY   = 341.2969

EPHEMERIS_TYPE = 0
CLASSIFICATION_TYPE = U
NORAD_CAT_ID   = 42758
ELEMENT_SET_NO = 999
REV_AT_EPOCH   = 47741
BSTAR          = .31719542E-3
MEAN_MOTION_DOT = .6225E-4
MEAN_MOTION_DDOT = 0

CCSDS_OMM_VERS = 2.0
CREATION_DATE  = 
ORIGINATOR     = 

OBJECT_NAME    = CZ-2C R/B
OBJECT_ID      = 2018-054D
CENTER_NAME    = EARTH
REF_FRAME      = TEME
TIME_SYSTEM    = UTC
MEAN_ELEMENT_THEORY = SGP/SGP4

EPOCH          = 2026-02-03T18:02:11.684832
MEAN_MOTION    = 15.92834999
ECCENTRICITY   = .00135336
INCLINATION    = 35.1294
RA_OF_ASC_NODE = 177.3244
ARG_OF_PERICENTER = 333.2518
MEAN_ANOMALY   = 26.7522

EPHEMERIS_TYPE = 0
CLASSIFICATION_TYPE = U
NORAD_CAT_ID   = 43521
ELEMENT_SET_NO = 999
REV_AT_EPOCH   = 42345
BSTAR          = .81368963E-3
MEAN_MOTION_DOT = .297582E-2
MEAN_MOTION_DDOT = .34011483E-4

CCSDS_OMM_VERS = 2.0
CREATION_DATE  = 
ORIGINATOR     = 

OBJECT_NAME    = SAOCOM 1A
OBJECT_ID      = 2018-076A
CENTER_NAME    = EARTH
REF_FRAME      = TEME
TIME_SYSTEM    = UTC
MEAN_ELEMENT_THEORY = SGP/SGP4

EPOCH          = 2026-02-04T06:36:21.282912
MEAN_MOTION    = 14.82151915
ECCENTRICITY   = .00013875
INCLINATION    = 97.8859
RA_OF_ASC_NODE = 223.9219
ARG_OF_PERICENTER = 87.5538
MEAN_ANOMALY   = 272.5834

EPHEMERIS_TYPE = 0
CLASSIFICATION_TYPE = U
NORAD_CAT_ID   = 43641
ELEMENT_SET_NO = 999
REV_AT_EPOCH   = 39641
BSTAR          = .9492926E-4
MEAN_MOTION_DOT = .704E-5
MEAN_MOTION_DDOT = 0

CCSDS_OMM_VERS = 2.0
CREATION_DATE  = 
ORIGINATOR     = 

OBJECT_NAME    = H-2A R/B
OBJECT_ID      = 2018-084L
CENTER_NAME    = EARTH
REF_FRAME      = TEME
TIME_SYSTEM    = UTC
MEAN_ELEMENT_THEORY = SGP/SGP4

EPOCH          = 2026-02-04T03:40:33.872448
MEAN_MOTION    = 15.39849549
ECCENTRICITY   = .00263049
INCLINATION    = 98.8756
RA_OF_ASC_NODE = 245.4111
ARG_OF_PERICENTER = 138.3262
MEAN_ANOMALY   = 221.9990

EPHEMERIS_TYPE = 0
CLASSIFICATION_TYPE = U
NORAD_CAT_ID   = 43682
ELEMENT_SET_NO = 999
REV_AT_EPOCH   = 40061
BSTAR          = .53837482E-3
MEAN_MOTION_DOT = .21559E-3
MEAN_MOTION_DDOT = 0

CCSDS_OMM_VERS = 2.0
CREATION_DATE  = 
ORIGINATOR     = 

OBJECT_NAME    = SAOCOM 1B
OBJECT_ID      = 2020-059A
CENTER_NAME    = EARTH
REF_FRAME      = TEME
TIME_SYSTEM    = UTC
MEAN_ELEMENT_THEORY = SGP/SGP4

EPOCH          = 2026-02-04T07:21:21.917088
MEAN_MOTION    = 14.82157556
ECCENTRICITY   = .00013694
INCLINATION    = 97.8857
RA_OF_ASC_NODE = 223.0512
ARG_OF_PERICENTER = 83.1964
MEAN_ANOMALY   = 276.9405

EPHEMERIS_TYPE = 0
CLASSIFICATION_TYPE = U
NORAD_CAT_ID   = 46265
ELEMENT_SET_NO = 999
REV_AT_EPOCH   = 29380
BSTAR          = .21686719E-4
MEAN_MOTION_DOT = .12E-5
MEAN_MOTION_DDOT = 0

CCSDS_OMM_VERS = 2.0
CREATION_DATE  = 
ORIGINATOR     = 

OBJECT_NAME    = CSS (TIANHE)
OBJECT_ID      = 2021-035A
CENTER_NAME    = EARTH
REF_FRAME      = TEME
TIME_SYSTEM    = UTC
MEAN_ELEMENT_THEORY = SGP/SGP4

EPOCH          = 2026-02-04T07:05:49.289568
MEAN_MOTION    = 15.59172508
ECCENTRICITY   = .00059729
INCLINATION    = 41.4675
RA_OF_ASC_NODE = 51.1227
ARG_OF_PERICENTER = 356.5106
MEAN_ANOMALY   = 3.5690

EPHEMERIS_TYPE = 0
CLASSIFICATION_TYPE = U
NORAD_CAT_ID   = 48274
ELEMENT_SET_NO = 999
REV_AT_EPOCH   = 27239
BSTAR          = .22165126E-3
MEAN_MOTION_DOT = .1758E-3
MEAN_MOTION_DDOT = 0

CCSDS_OMM_VERS = 2.0
CREATION_DATE  = 
ORIGINATOR     = 

OBJECT_NAME    = COSMOS 2550
OBJECT_ID      = 2021-056A
CENTER_NAME    = EARTH
REF_FRAME      = TEME
TIME_SYSTEM    = UTC
MEAN_ELEMENT_THEORY = SGP/SGP4

EPOCH          = 2026-01-26T03:10:39.828288
MEAN_MOTION    = 15.33840202
ECCENTRICITY   = .00083094
INCLINATION    = 67.1441
RA_OF_ASC_NODE = 169.6578
ARG_OF_PERICENTER = 269.8947
MEAN_ANOMALY   = 90.1255

EPHEMERIS_TYPE = 0
CLASSIFICATION_TYPE = U
NORAD_CAT_ID   = 48865
ELEMENT_SET_NO = 999
REV_AT_EPOCH   = 25693
BSTAR          = .322698E-6
MEAN_MOTION_DOT = -.181E-5
MEAN_MOTION_DDOT = 0

CCSDS_OMM_VERS = 2.0
CREATION_DATE  = 
ORIGINATOR     = 

OBJECT_NAME    = CZ-2C R/B
OBJECT_ID      = 2022-058K
CENTER_NAME    = EARTH
REF_FRAME      = TEME
TIME_SYSTEM    = UTC
MEAN_ELEMENT_THEORY = SGP/SGP4

EPOCH          = 2026-02-04T05:55:55.969248
MEAN_MOTION    = 15.51870967
ECCENTRICITY   = .00423778
INCLINATION    = 50.1895
RA_OF_ASC_NODE = 130.0079
ARG_OF_PERICENTER = 59.0016
MEAN_ANOMALY   = 301.5106

EPHEMERIS_TYPE = 0
CLASSIFICATION_TYPE = U
NORAD_CAT_ID   = 52794
ELEMENT_SET_NO = 999
REV_AT_EPOCH   = 20493
BSTAR          = .47434185E-3
MEAN_MOTION_DOT = .2971E-3
MEAN_MOTION_DDOT = 0

