SL-4 R/B                
1 39679U 14021B   26035.30870146  .00013015  00000+0  29800-3 0  9998
2 39679  51.6067 139.9870 0098991 341.3213  18.4147 15.38118544651132
ALOS-2                  
1 39766U 14029A   26035.30826381  .00000607  00000+0  88194-4 0  9990
2 39766  97.9221 134.3859 0001438 102.5712 257.5660 14.79478399631934
YAOGAN-29               
1 41038U 15069A   26035.32784773  .00000475  00000+0  65227-4 0  9995
2 41038  98.0174  63.6629 0002897  91.7205 268.4340 14.82956418550936
ASTRO-H (HITOMI)        
1 41337U 16012A   26035.18335156  .00003828  00000+0  22555-3 0  9998
2 41337  30.9979 212.7308 0009893 355.6049   4.4502 15.09754374547164
HXMT (HUIYAN)           
1 42758U 17034A   26034.93964225  .00006225  00000+0  31720-3 0  9996
2 42758  43.0128 204.2439 0031417  18.9038 341.2969 15.17007385477419
CZ-2C R/B               
1 43521U 18054D   26034.75152413  .00297582  34011-4  81369-3 0  9992
2 43521  35.1294 177.3244 0013533 333.2518  26.7522 15.92834999423450
SAOCOM 1A               
1 43641U 18076A   26035.27524633  .00000704  00000+0  94929-4 0  9995
2 43641  97.8859 223.9219 0001387  87.5538 272.5834 14.82151915396410
H-2A R/B                
1 43682U 18084L   26035.15316982  .00021559  00000+0  53837-3 0  9995
2 43682  98.8756 245.4111 0026304 138.3262 221.9990 15.39849549400616
SAOCOM 1B               
1 46265U 20059A   26035.30650367  .00000120  00000+0  21687-4 0  9995
2 46265  97.8857 223.0512 0001369  83.1964 276.9405 14.82157556293803
CSS (TIANHE)            
1 48274U 21035A   26035.29570937  .00017580  00000+0  22165-3 0  9993
2 48274  41.4675  51.1227 0005972 356.5106   3.5690 15.59172508272390
COSMOS 2550             
1 48865U 21056A   26026.13240542 -.00000181  00000+0  32270-6 0  9992
2 48865  67.1441 169.6578 0008309 269.8947  90.1255 15.33840202256938
CZ-2C R/B               
1 52794U 22058K   26035.24717557  .00029710  00000+0  47434-3 0  9991
2 52794  50.1895 130.0079 0042377  59.0016 301.5106 15.51870967204934
